[{"OBJECT_NAME":"STARLINK-30499","OBJECT_ID":"2023-147F","EPOCH":"2026-03-09T07:25:00.382944","MEAN_MOTION":15.27574229,"ECCENTRICITY":0.0001804,"INCLINATION":43.0037,"RA_OF_ASC_NODE":182.3695,"ARG_OF_PERICENTER":279.5416,"MEAN_ANOMALY":80.5232,"EPHEMERIS_TYPE":0,"CLASSIFICATION_TYPE":"U","NORAD_CAT_ID":57918,"ELEMENT_SET_NO":999,"REV_AT_EPOCH":13827,"BSTAR":5.9523008e-5,"MEAN_MOTION_DOT":1.376e-5,"MEAN_MOTION_DDOT":0},{"OBJECT_NAME":"OBJECT N","OBJECT_ID":"2019-093N","EPOCH":"2026-03-09T21:41:56.087232","MEAN_MOTION":15.29897693,"ECCENTRICITY":0.0006278,"INCLINATION":98.0505,"RA_OF_ASC_NODE":226.9456,"ARG_OF_PERICENTER":33.3806,"MEAN_ANOMALY":326.7828,"EPHEMERIS_TYPE":0,"CLASSIFICATION_TYPE":"U","NORAD_CAT_ID":44891,"ELEMENT_SET_NO":999,"REV_AT_EPOCH":33957,"BSTAR":0.0010567776,"MEAN_MOTION_DOT":0.00030617,"MEAN_MOTION_DDOT":0}]
